GLOBALSTAR M023         
1 25621U 99004A   25296.62817720 -.00000120  00000+0 -88337-4 0  9992
2 25621  52.0133  22.3323 0010336  53.4193  88.2265 12.62507637231955
GLOBALSTAR M040         
1 25622U 99004B   25296.54591845 -.00000023  00000+0  45320-3 0  9996
2 25622  51.9942  26.9267 0000307 346.9410  26.3830 12.62020559231468
GLOBALSTAR M036         
1 25623U 99004C   25296.61221388 -.00000042  00000+0  59337-3 0  9991
2 25623  51.9958 261.8169 0010602 298.2421 234.1669 11.86612399194222
GLOBALSTAR M038         
1 25624U 99004D   25296.62159684 -.00000080  00000+0  12358-3 0  9996
2 25624  51.9982  61.6897 0001173 343.0850  30.1682 12.32534347218215
GLOBALSTAR M022         
1 25649U 99012A   25296.52260247 -.00000025  00000+0  74115-3 0  9997
2 25649  52.0041 302.0268 0002870  66.3135 102.5979 12.02504851191813
GLOBALSTAR M041         
1 25650U 99012B   25296.68205517 -.00000119  00000+0 -43041-3 0  9994
2 25650  52.0005 186.9612 0000811 181.8026 178.2808 11.96680766193660
GLOBALSTAR M046         
1 25651U 99012C   25296.63738727 -.00000070  00000+0  20701-3 0  9997
2 25651  52.0054 247.1594 0001983 133.9316  36.6201 12.09415140199202
GLOBALSTAR M037         
1 25652U 99012D   25296.66968176 -.00000063  00000+0  22739-3 0  9999
2 25652  51.9985 152.7794 0002913 101.0214 300.3696 12.62453067227507
